{
    "links": {
        "self": "http://www.neowsapp.com/rest/v1/neo/3699505?api_key=iIulBulltgU6a56xZRHN4H3l9WmuAYTsLGpBGhQ2"
    },
    "id": "3699505",
    "neo_reference_id": "3699505",
    "name": "(2014 WD365)",
    "designation": "2014 WD365",
    "nasa_jpl_url": "http://ssd.jpl.nasa.gov/sbdb.cgi?sstr=3699505",
    "absolute_magnitude_h": 19.7,
    "estimated_diameter": {
        "kilometers": {
            "estimated_diameter_min": 0.3051792326,
            "estimated_diameter_max": 0.6824015094
        },
        "meters": {
            "estimated_diameter_min": 305.1792325939,
            "estimated_diameter_max": 682.4015094011
        },
        "miles": {
            "estimated_diameter_min": 0.1896295249,
            "estimated_diameter_max": 0.4240245083
        },
        "feet": {
            "estimated_diameter_min": 1001.2442334633,
            "estimated_diameter_max": 2238.8501681036
        }
    },
    "is_potentially_hazardous_asteroid": false,
    "close_approach_data": [
        {
            "close_approach_date": "2014-07-25",
            "close_approach_date_full": "2014-Jul-25 01:24",
            "epoch_date_close_approach": 1406251440000,
            "relative_velocity": {
                "kilometers_per_second": "17.6781833002",
                "kilometers_per_hour": "63641.4598806764",
                "miles_per_hour": "39544.3282241903"
            },
            "miss_distance": {
                "astronomical": "0.3265327559",
                "lunar": "127.0212420451",
                "kilometers": "48848604.767869933",
                "miles": "30353115.5100857554"
            },
            "orbiting_body": "Earth"
        }
    ],
    "orbital_data": {
        "orbit_id": "3",
        "orbit_determination_date": "2017-04-06 08:37:06",
        "first_observation_date": "2014-11-24",
        "last_observation_date": "2014-11-29",
        "data_arc_in_days": 5,
        "observations_used": 13,
        "orbit_uncertainty": "9",
        "minimum_orbit_intersection": ".136657",
        "jupiter_tisserand_invariant": "3.284",
        "epoch_osculation": "2456986.5",
        "eccentricity": ".6769855430295183",
        "semi_major_axis": "2.213648710877458",
        "inclination": "13.48806129355163",
        "ascending_node_longitude": "81.56674581010431",
        "orbital_period": "1202.988514835341",
        "perihelion_distance": ".7150405362674889",
        "perihelion_argument": "214.9536293609438",
        "aphelion_distance": "3.712256885487427",
        "perihelion_time": "2456861.539654969239",
        "mean_anomaly": "37.39497398047176",
        "mean_motion": ".2992547273398324",
        "equinox": "J2000",
        "orbit_class": {
            "orbit_class_type": "APO",
            "orbit_class_description": "Near-Earth asteroid orbits which cross the Earth’s orbit similar to that of 1862 Apollo",
            "orbit_class_range": "a (semi-major axis) > 1.0 AU; q (perihelion) < 1.017 AU"
        }
    },
    "is_sentry_object": false
}